{
  "type": "FeatureCollection",
  "features": [
    {
      "type": "Feature",
      "properties": {
        "norad_id": 66454,
        "name": "VIASAT-3 F2",
        "group": "last-30-days",
        "lat": 5.2932805920935,
        "lon": 8.099292188059835,
        "alt_km": 19915.587856813778,
        "timestamp": "2025-12-12T05:47:27.524492+00:00",
        "meta_object_name": "VIASAT-3 F2",
        "meta_object_id": "2025-261A",
        "meta_epoch": "2025-12-08T12:11:15.383616",
        "meta_mean_motion": 2.19142646,
        "meta_eccentricity": 0.22792154,
        "meta_inclination": 5.457,
        "meta_ra_of_asc_node": 292.6501,
        "meta_arg_of_pericenter": 190.5469,
        "meta_mean_anomaly": 204.5187,
        "meta_ephemeris_type": 0,
        "meta_classification_type": "U",
        "meta_norad_cat_id": 66454,
        "meta_element_set_no": 999,
        "meta_rev_at_epoch": 55,
        "meta_bstar": 0,
        "meta_mean_motion_dot": -8.1e-07,
        "meta_mean_motion_ddot": 0,
        "tle_line1": "1 66454U 25261A   25342.50781694 -.00000081  00000+0  00000+0 0  9995",
        "tle_line2": "2 66454   5.4570 292.6501 2279215 190.5469 204.5187  2.19142646   557"
      },
      "geometry": {
        "type": "Point",
        "coordinates": [
          8.099292188059835,
          5.2932805920935
        ]
      }
    },
    {
      "type": "Feature",
      "properties": {
        "norad_id": 66455,
        "name": "ATLAS 5 CENTAUR R/B",
        "group": "last-30-days",
        "lat": -4.940159815879144,
        "lon": -121.58488061868732,
        "alt_km": 19735.05079263775,
        "timestamp": "2025-12-12T05:47:27.524547+00:00",
        "meta_object_name": "ATLAS 5 CENTAUR R/B",
        "meta_object_id": "2025-261B",
        "meta_epoch": "2025-12-11T21:33:51.291648",
        "meta_mean_motion": 2.28259867,
        "meta_eccentricity": 0.23294668,
        "meta_inclination": 6.1468,
        "meta_ra_of_asc_node": 291.7004,
        "meta_arg_of_pericenter": 186.3152,
        "meta_mean_anomaly": 173.4569,
        "meta_ephemeris_type": 0,
        "meta_classification_type": "U",
        "meta_norad_cat_id": 66455,
        "meta_element_set_no": 999,
        "meta_rev_at_epoch": 63,
        "meta_bstar": 0,
        "meta_mean_motion_dot": -7.7e-07,
        "meta_mean_motion_ddot": 0,
        "tle_line1": "1 66455U 25261B   25345.89851032 -.00000077  00000+0  00000+0 0  9990",
        "tle_line2": "2 66455   6.1468 291.7004 2329466 186.3152 173.4569  2.28259867   637"
      },
      "geometry": {
        "type": "Point",
        "coordinates": [
          -121.58488061868732,
          -4.940159815879144
        ]
      }
    },
    {
      "type": "Feature",
      "properties": {
        "norad_id": 66456,
        "name": "STARLINK-35643",
        "group": "last-30-days",
        "lat": -42.601763709800856,
        "lon": -24.813306472972904,
        "alt_km": 446.72338556965224,
        "timestamp": "2025-12-12T05:47:27.524565+00:00",
        "meta_object_name": "STARLINK-35643",
        "meta_object_id": "2025-262A",
        "meta_epoch": "2025-12-11T22:00:01.999584",
        "meta_mean_motion": 15.40626757,
        "meta_eccentricity": 0.00014343,
        "meta_inclination": 42.9998,
        "meta_ra_of_asc_node": 76.3556,
        "meta_arg_of_pericenter": 293.4595,
        "meta_mean_anomaly": 327.2344,
        "meta_ephemeris_type": 0,
        "meta_classification_type": "U",
        "meta_norad_cat_id": 66456,
        "meta_element_set_no": 999,
        "meta_rev_at_epoch": 550,
        "meta_bstar": 0.0008908792,
        "meta_mean_motion_dot": 0.00037001,
        "meta_mean_motion_ddot": 0,
        "tle_line1": "1 66456U 25262A   25345.91668981  .00037001  00000+0  89088-3 0  9997",
        "tle_line2": "2 66456  42.9998  76.3556 0001434 293.4595 327.2344 15.40626757  5509"
      },
      "geometry": {
        "type": "Point",
        "coordinates": [
          -24.813306472972904,
          -42.601763709800856
        ]
      }
    },
    {
      "type": "Feature",
      "properties": {
        "norad_id": 66457,
        "name": "STARLINK-35466",
        "group": "last-30-days",
        "lat": -40.41065096927456,
        "lon": 8.40888741008921,
        "alt_km": 447.008464569044,
        "timestamp": "2025-12-12T05:47:27.524578+00:00",
        "meta_object_name": "STARLINK-35466",
        "meta_object_id": "2025-262B",
        "meta_epoch": "2025-12-11T22:00:01.999584",
        "meta_mean_motion": 15.40644667,
        "meta_eccentricity": 9.828e-05,
        "meta_inclination": 43.0002,
        "meta_ra_of_asc_node": 76.2934,
        "meta_arg_of_pericenter": 237.2275,
        "meta_mean_anomaly": 48.3382,
        "meta_ephemeris_type": 0,
        "meta_classification_type": "U",
        "meta_norad_cat_id": 66457,
        "meta_element_set_no": 999,
        "meta_rev_at_epoch": 550,
        "meta_bstar": 0.00029532475,
        "meta_mean_motion_dot": 0.0001203,
        "meta_mean_motion_ddot": 0,
        "tle_line1": "1 66457U 25262B   25345.91668981  .00012030  00000+0  29532-3 0  9991",
        "tle_line2": "2 66457  43.0002  76.2934 0000982 237.2275  48.3382 15.40644667  5508"
      },
      "geometry": {
        "type": "Point",
        "coordinates": [
          8.40888741008921,
          -40.41065096927456
        ]
      }
    },
    {
      "type": "Feature",
      "properties": {
        "norad_id": 66458,
        "name": "STARLINK-35684",
        "group": "last-30-days",
        "lat": -42.72350195290535,
        "lon": -7.8836342630601735,
        "alt_km": 447.0263134894758,
        "timestamp": "2025-12-12T05:47:27.524590+00:00",
        "meta_object_name": "STARLINK-35684",
        "meta_object_id": "2025-262C",
        "meta_epoch": "2025-12-11T22:00:01.999584",
        "meta_mean_motion": 15.40656771,
        "meta_eccentricity": 8.537e-05,
        "meta_inclination": 43.0001,
        "meta_ra_of_asc_node": 76.3233,
        "meta_arg_of_pericenter": 241.882,
        "meta_mean_anomaly": 31.247,
        "meta_ephemeris_type": 0,
        "meta_classification_type": "U",
        "meta_norad_cat_id": 66458,
        "meta_element_set_no": 999,
        "meta_rev_at_epoch": 550,
        "meta_bstar": 0.00016703486,
        "meta_mean_motion_dot": 6.67e-05,
        "meta_mean_motion_ddot": 0,
        "tle_line1": "1 66458U 25262C   25345.91668981  .00006670  00000+0  16703-3 0  9991",
        "tle_line2": "2 66458  43.0001  76.3233 0000853 241.8820  31.2470 15.40656771  5503"
      },
      "geometry": {
        "type": "Point",
        "coordinates": [
          -7.8836342630601735,
          -42.72350195290535
        ]
      }
    },
    {
      "type": "Feature",
      "properties": {
        "norad_id": 66459,
        "name": "STARLINK-35449",
        "group": "last-30-days",
        "lat": -35.994713339154366,
        "lon": 23.175304921101066,
        "alt_km": 446.3733385146443,
        "timestamp": "2025-12-12T05:47:27.524602+00:00",
        "meta_object_name": "STARLINK-35449",
        "meta_object_id": "2025-262D",
        "meta_epoch": "2025-12-11T22:00:01.999584",
        "meta_mean_motion": 15.40657095,
        "meta_eccentricity": 0.00012442,
        "meta_inclination": 43.0002,
        "meta_ra_of_asc_node": 76.2626,
        "meta_arg_of_pericenter": 288.2211,
        "meta_mean_anomaly": 9.7741,
        "meta_ephemeris_type": 0,
        "meta_classification_type": "U",
        "meta_norad_cat_id": 66459,
        "meta_element_set_no": 999,
        "meta_rev_at_epoch": 550,
        "meta_bstar": 0.00021553305,
        "meta_mean_motion_dot": 8.697e-05,
        "meta_mean_motion_ddot": 0,
        "tle_line1": "1 66459U 25262D   25345.91668981  .00008697  00000+0  21553-3 0  9992",
        "tle_line2": "2 66459  43.0002  76.2626 0001244 288.2211   9.7741 15.40657095  5505"
      },
      "geometry": {
        "type": "Point",
        "coordinates": [
          23.175304921101066,
          -35.994713339154366
        ]
      }
    },
    {
      "type": "Feature",
      "properties": {
        "norad_id": 66460,
        "name": "STARLINK-35424",
        "group": "last-30-days",
        "lat": -29.968692231098288,
        "lon": 36.1343380576735,
        "alt_km": 446.2763766485514,
        "timestamp": "2025-12-12T05:47:27.524616+00:00",
        "meta_object_name": "STARLINK-35424",
        "meta_object_id": "2025-262E",
        "meta_epoch": "2025-12-11T22:00:01.999584",
        "meta_mean_motion": 15.406653,
        "meta_eccentricity": 0.00013652,
        "meta_inclination": 43.0003,
        "meta_ra_of_asc_node": 76.2326,
        "meta_arg_of_pericenter": 255.9093,
        "meta_mean_anomaly": 54.5121,
        "meta_ephemeris_type": 0,
        "meta_classification_type": "U",
        "meta_norad_cat_id": 66460,
        "meta_element_set_no": 999,
        "meta_rev_at_epoch": 550,
        "meta_bstar": 0.00048818032,
        "meta_mean_motion_dot": 0.00020119,
        "meta_mean_motion_ddot": 0,
        "tle_line1": "1 66460U 25262E   25345.91668981  .00020119  00000+0  48818-3 0  9990",
        "tle_line2": "2 66460  43.0003  76.2326 0001365 255.9093  54.5121 15.40665300  5506"
      },
      "geometry": {
        "type": "Point",
        "coordinates": [
          36.1343380576735,
          -29.968692231098288
        ]
      }
    }
  ]
}